TOMORROW-S2             
1 60485U 24149T   26068.75188364  .00008133  00000+0  27683-3 0  9990
2 60485  97.3857 150.0385 0001648 234.3331 125.7757 15.30674935 86869
STARLINK-32299          
1 61702U 24195R   26068.55667478 -.00000249  00000+0  37123-5 0  9993
2 61702  53.1605 155.7910 0001160 111.9829 248.1295 15.30187677 77230
